CTC2_L_00205016-03
1 64938U 24998XE  26070.40844907  .00000000  00000+0  00000-0 0  9992
2 64938  80.0000 180.0000 0000000   0.0000   0.0000 14.42576008    17
CTC2_L_00205016-04
1 64939U 23753NA  26070.40844907  .00000000  00000+0  00000-0 0  9991
2 64939  80.0000 180.0000 0000000   0.0000  90.0000 14.42576008    17
CTC2_L_00205017-01
1 64940U 23941KM  26070.40844907  .00000000  00000+0  00000-0 0  9992
2 64940  80.0000 192.0000 0000000   0.0000 192.0000 14.42576008    15
CTC2_L_00205017-02
1 64941U 25712ER  26070.40844907  .00000000  00000+0  00000-0 0  9991
2 64941  80.0000 192.0000 0000000   0.0000 282.0000 14.42576008    16
CTC2_L_00205017-03
1 64942U 23826OR  26070.40844907  .00000000  00000+0  00000-0 0  9996
2 64942  80.0000 192.0000 0000000   0.0000  12.0000 14.42576008    18
CTC2_L_00205017-04
1 64943U 24489JT  26070.40844907  .00000000  00000+0  00000-0 0  9993
2 64943  80.0000 192.0000 0000000   0.0000 102.0000 14.42576008    19
CTC2_L_00205018-01
1 64944U 26790HJ  26070.40844907  .00000000  00000+0  00000-0 0  9991
2 64944  80.0000 204.0000 0000000   0.0000 204.0000 14.42576008    17
CTC2_L_00205018-02
1 64945U 22869YZ  26070.40844907  .00000000  00000+0  00000-0 0  9995
2 64945  80.0000 204.0000 0000000   0.0000 294.0000 14.42576008    17
CTC2_L_00205018-03
1 64946U 25964QT  26070.40844907  .00000000  00000+0  00000-0 0  9995
2 64946  80.0000 204.0000 0000000   0.0000  24.0000 14.42576008    19
CTC2_L_00205018-04
1 64947U 22680CM  26070.40844907  .00000000  00000+0  00000-0 0  9998
2 64947  80.0000 204.0000 0000000   0.0000 114.0000 14.42576008    10
CTC2_L_00205019-01
1 64948U 22497WI  26070.40844907  .00000000  00000+0  00000-0 0  9995
2 64948  80.0000 216.0000 0000000   0.0000 216.0000 14.42576008    17
CTC2_L_00205019-02
1 64949U 23327MX  26070.40844907  .00000000  00000+0  00000-0 0  9999
2 64949  80.0000 216.0000 0000000   0.0000 306.0000 14.42576008    18
CTC2_L_00205019-03
1 64950U 25199MQ  26070.40844907  .00000000  00000+0  00000-0 0  9990
2 64950  80.0000 216.0000 0000000   0.0000  36.0000 14.42576008    10
CTC2_L_00205019-04
1 64951U 22940DL  26070.40844907  .00000000  00000+0  00000-0 0  9992
2 64951  80.0000 216.0000 0000000   0.0000 126.0000 14.42576008    11
CTC2_L_00205020-01
1 64952U 26384ZL  26070.40844907  .00000000  00000+0  00000-0 0  9999
2 64952  80.0000 228.0000 0000000   0.0000 228.0000 14.42576008    18
CTC2_L_00205020-02
1 64953U 23258E   26070.40844907  .00000000  00000+0  00000-0 0  9997
2 64953  80.0000 228.0000 0000000   0.0000 318.0000 14.42576008    19
CTC2_L_00205020-03
1 64954U 25164WA  26070.40844907  .00000000  00000+0  00000-0 0  9996
2 64954  80.0000 228.0000 0000000   0.0000  48.0000 14.42576008    10
CTC2_L_00205020-04
1 64955U 24941LC  26070.40844907  .00000000  00000+0  00000-0 0  9999
2 64955  80.0000 228.0000 0000000   0.0000 138.0000 14.42576008    11
CTC2_L_00205021-01
1 64956U 22725ET  26070.40844907  .00000000  00000+0  00000-0 0  9998
2 64956  80.0000 240.0000 0000000   0.0000 240.0000 14.42576008    10
CTC2_L_00205021-02
1 64957U 25069UW  26070.40844907  .00000000  00000+0  00000-0 0  9993
2 64957  80.0000 240.0000 0000000   0.0000 330.0000 14.42576008    11
CTC2_L_00205021-03
1 64958U 22056EV  26070.40844907  .00000000  00000+0  00000-0 0  9997
2 64958  80.0000 240.0000 0000000   0.0000  60.0000 14.42576008    12
CTC2_L_00205021-04
1 64959U 23688FH  26070.40844907  .00000000  00000+0  00000-0 0  9990
2 64959  80.0000 240.0000 0000000   0.0000 150.0000 14.42576008    13
CTC2_L_00205022-01
1 64960U 22572UB  26070.40844907  .00000000  00000+0  00000-0 0  9993
2 64960  80.0000 252.0000 0000000   0.0000 252.0000 14.42576008    11
CTC2_L_00205022-02
1 64961U 22198DB  26070.40844907  .00000000  00000+0  00000-0 0  9998
2 64961  80.0000 252.0000 0000000   0.0000 342.0000 14.42576008    12
CTC2_L_00205022-03
1 64962U 23501VW  26070.40844907  .00000000  00000+0  00000-0 0  9998
2 64962  80.0000 252.0000 0000000   0.0000  72.0000 14.42576008    13
CTC2_L_00205022-04
1 64963U 24129TI  26070.40844907  .00000000  00000+0  00000-0 0  9996
2 64963  80.0000 252.0000 0000000   0.0000 162.0000 14.42576008    14
CTC2_L_00205023-01
1 64964U 22029KI  26070.40844907  .00000000  00000+0  00000-0 0  9994
2 64964  80.0000 264.0000 0000000   0.0000 264.0000 14.42576008    11
CTC2_L_00205023-02
1 64965U 22970GP  26070.40844907  .00000000  00000+0  00000-0 0  9990
2 64965  80.0000 264.0000 0000000   0.0000 354.0000 14.42576008    12
CTC2_L_00205023-03
1 64966U 25873KJ  26070.40844907  .00000000  00000+0  00000-0 0  9996
2 64966  80.0000 264.0000 0000000   0.0000  84.0000 14.42576008    13
CTC2_L_00205023-04
1 64967U 22678VZ  26070.40844907  .00000000  00000+0  00000-0 0  9997
2 64967  80.0000 264.0000 0000000   0.0000 174.0000 14.42576008    14
CTC2_L_00205024-01
1 64968U 23280YJ  26070.40844907  .00000000  00000+0  00000-0 0  9998
2 64968  80.0000 276.0000 0000000   0.0000 276.0000 14.42576008    11
CTC2_L_00205024-02
1 64969U 24146GI  26070.40844907  .00000000  00000+0  00000-0 0  9991
2 64969  80.0000 276.0000 0000000   0.0000   6.0000 14.42576008    13
CTC2_L_00205024-03
1 64970U 25227AG  26070.40844907  .00000000  00000+0  00000-0 0  9994
2 64970  80.0000 276.0000 0000000   0.0000  96.0000 14.42576008    14
CTC2_L_00205024-04
1 64971U 26826NP  26070.40844907  .00000000  00000+0  00000-0 0  9991
2 64971  80.0000 276.0000 0000000   0.0000 186.0000 14.42576008    15
CTC2_L_00205025-01
1 64972U 22723DI  26070.40844907  .00000000  00000+0  00000-0 0  9994
2 64972  80.0000 288.0000 0000000   0.0000 288.0000 14.42576008    12
CTC2_L_00205025-02
1 64973U 24331ZP  26070.40844907  .00000000  00000+0  00000-0 0  9992
2 64973  80.0000 288.0000 0000000   0.0000  18.0000 14.42576008    14
CTC2_L_00205025-03
1 64974U 22471TV  26070.40844907  .00000000  00000+0  00000-0 0  9996
2 64974  80.0000 288.0000 0000000   0.0000 108.0000 14.42576008    15
CTC2_L_00205025-04
1 64975U 22050YO  26070.40844907  .00000000  00000+0  00000-0 0  9990
2 64975  80.0000 288.0000 0000000   0.0000 198.0000 14.42576008    15
CTC2_L_00205026-01
1 64976U 26626X   26070.40844907  .00000000  00000+0  00000-0 0  9994
2 64976  80.0000 300.0000 0000000   0.0000 300.0000 14.42576008    16
CTC2_L_00205026-02
1 64977U 26039RS  26070.40844907  .00000000  00000+0  00000-0 0  9993
2 64977  80.0000 300.0000 0000000   0.0000  30.0000 14.42576008    17
CTC2_L_00205026-03
1 64978U 23190EE  26070.40844907  .00000000  00000+0  00000-0 0  9999
2 64978  80.0000 300.0000 0000000   0.0000 120.0000 14.42576008    18
CTC2_L_00205026-04
1 64979U 26160ER  26070.40844907  .00000000  00000+0  00000-0 0  9990
2 64979  80.0000 300.0000 0000000   0.0000 210.0000 14.42576008    19
CTC2_L_00205027-01
1 64980U 24126YA  26070.40844907  .00000000  00000+0  00000-0 0  9992
2 64980  80.0000 312.0000 0000000   0.0000 312.0000 14.42576008    17
CTC2_L_00205027-02
1 64981U 23609AD  26070.40844907  .00000000  00000+0  00000-0 0  9998
2 64981  80.0000 312.0000 0000000   0.0000  42.0000 14.42576008    18
CTC2_L_00205027-03
1 64982U 24509KN  26070.40844907  .00000000  00000+0  00000-0 0  9999
2 64982  80.0000 312.0000 0000000   0.0000 132.0000 14.42576008    19
CTC2_L_00205027-04
1 64983U 26595MC  26070.40844907  .00000000  00000+0  00000-0 0  9997
2 64983  80.0000 312.0000 0000000   0.0000 222.0000 14.42576008    10
CTC2_L_00205028-01
1 64984U 25856E   26070.40844907  .00000000  00000+0  00000-0 0  9997
2 64984  80.0000 324.0000 0000000   0.0000 324.0000 14.42576008    17
CTC2_L_00205028-02
1 64985U 25271ZF  26070.40844907  .00000000  00000+0  00000-0 0  9999
2 64985  80.0000 324.0000 0000000   0.0000  54.0000 14.42576008    18
CTC2_L_00205028-03
1 64986U 22451R   26070.40844907  .00000000  00000+0  00000-0 0  9997
2 64986  80.0000 324.0000 0000000   0.0000 144.0000 14.42576008    19
CTC2_L_00205028-04
1 64987U 22726YH  26070.40844907  .00000000  00000+0  00000-0 0  9993
2 64987  80.0000 324.0000 0000000   0.0000 234.0000 14.42576008    10
CTC2_L_00205029-01
1 64988U 22029RK  26070.40844907  .00000000  00000+0  00000-0 0  9990
2 64988  80.0000 336.0000 0000000   0.0000 336.0000 14.42576008    17
CTC2_L_00205029-02
1 64989U 23494BN  26070.40844907  .00000000  00000+0  00000-0 0  9998
2 64989  80.0000 336.0000 0000000   0.0000  66.0000 14.42576008    18
CTC2_L_00205029-03
1 64990U 22319II  26070.40844907  .00000000  00000+0  00000-0 0  9995
2 64990  80.0000 336.0000 0000000   0.0000 156.0000 14.42576008    10
CTC2_L_00205029-04
1 64991U 22896GC  26070.40844907  .00000000  00000+0  00000-0 0  9996
2 64991  80.0000 336.0000 0000000   0.0000 246.0000 14.42576008    11
CTC2_L_00205030-01
1 64992U 22114YZ  26070.40844907  .00000000  00000+0  00000-0 0  9990
2 64992  80.0000 348.0000 0000000   0.0000 348.0000 14.42576008    18
CTC2_L_00205030-02
1 64993U 26041BY  26070.40844907  .00000000  00000+0  00000-0 0  9994
2 64993  80.0000 348.0000 0000000   0.0000  78.0000 14.42576008    19
CTC2_L_00205030-03
1 64994U 26792TH  26070.40844907  .00000000  00000+0  00000-0 0  9998
2 64994  80.0000 348.0000 0000000   0.0000 168.0000 14.42576008    10
CTC2_L_00205030-04
1 64995U 24295QU  26070.40844907  .00000000  00000+0  00000-0 0  9995
2 64995  80.0000 348.0000 0000000   0.0000 258.0000 14.42576008    11
